[{"OBJECT_NAME":"STARLINK-2209","OBJECT_ID":"2021-017BG","EPOCH":"2026-03-10T00:00:02.999808","MEAN_MOTION":15.44197339,"ECCENTRICITY":0.00010832,"INCLINATION":53.1594,"RA_OF_ASC_NODE":201.998,"ARG_OF_PERICENTER":72.9426,"MEAN_ANOMALY":205.8018,"EPHEMERIS_TYPE":0,"CLASSIFICATION_TYPE":"U","NORAD_CAT_ID":47776,"ELEMENT_SET_NO":999,"REV_AT_EPOCH":581,"BSTAR":9.0478385e-5,"MEAN_MOTION_DOT":3.798e-5,"MEAN_MOTION_DDOT":0},{"OBJECT_NAME":"NUSAT-39 (TIKVAH ALPER)","OBJECT_ID":"2023-054Z","EPOCH":"2026-03-09T21:28:29.697024","MEAN_MOTION":15.41540471,"ECCENTRICITY":0.0007232,"INCLINATION":97.3191,"RA_OF_ASC_NODE":338.0552,"ARG_OF_PERICENTER":52.8862,"MEAN_ANOMALY":307.3045,"EPHEMERIS_TYPE":0,"CLASSIFICATION_TYPE":"U","NORAD_CAT_ID":56201,"ELEMENT_SET_NO":999,"REV_AT_EPOCH":16313,"BSTAR":0.00071343527,"MEAN_MOTION_DOT":0.00029967,"MEAN_MOTION_DDOT":0}]
